TDRS 9                  
1 27389U 02011A   21310.38556198 -.00000281  00000-0  00000+0 0  9996
2 27389   8.5479  62.8217 0024119 282.3048 137.0746  1.00265545 73550
ASTRA 3A                
1 27400U 02015B   21310.42006260 -.00000198  00000-0  00000+0 0  9996
2 27400   6.9364  60.5758 0001166 160.1410 249.5930  1.00272960 71839
NSS-7                   
1 27414U 02019A   21310.32339785 -.00000151  00000-0  00000+0 0  9994
2 27414   5.3816  73.0656 0002628 168.2542 260.8769  1.00271648 71674
DIRECTV 5 (TEMPO 1)     
1 27426U 02023A   21310.14895692 -.00000049  00000-0  00000+0 0  9992
2 27426   0.5649  95.4902 0003403 140.0955 113.5397  1.00271584 71410
INTELSAT 905 (IS-905)   
1 27438U 02027A   21309.88025595 -.00000176  00000-0  00000-0 0  9997
2 27438   2.5012  88.9997 0002507 123.3942 125.3490  1.00272639 34476
GALAXY 3C (G-3C)        
1 27445U 02030A   21310.41289510 -.00000144  00000-0  00000+0 0  9993
2 27445   0.0189 291.8475 0001670  46.1071 121.5151  1.00265432 71075
EUTELSAT 5 WEST A       
1 27460U 02035A   21310.32205519 -.00000035  00000-0  00000+0 0  9991
2 27460   1.7679  91.7081 0005360 134.9059 290.1286  1.00269605 70860
METEOSAT-8 (MSG-1)      
1 27509U 02040B   21309.96511928  .00000143  00000-0  00000+0 0  9992
2 27509   7.6286  51.7888 0001906 156.0374 226.3747  1.00266574 70361
INTELSAT 906 (IS-906)   
1 27513U 02041A   21310.18501774  .00000022  00000-0  00000+0 0  9998
2 27513   1.5126  93.0033 0003485 143.6302 299.7549  1.00272390 70086
HISPASAT 30W-4          
1 27528U 02044A   21309.71308333  .00000126  00000-0  00000-0 0  9996
2 27528   2.2851  89.1799 0003667 136.5602 293.1314  1.00271670 26085
TDRS 10                 
1 27566U 02055A   21310.11672267  .00000096  00000-0  00000+0 0  9991
2 27566   7.7983  51.1534 0004931 317.8240 267.4661  1.00271125 69346
NSS-6                   
1 27603U 02057A   21309.77954362  .00000116  00000-0  00000-0 0  9998
2 27603   1.0469  94.0493 0003053 129.7595 292.5678  1.00270363 69150
NIMIQ 2                 
1 27632U 02062A   21309.67008473 -.00000032  00000-0  00000-0 0  9996
2 27632   5.4877  72.1983 0001822 218.7721 356.8499  1.00026336 27299
USA 167                 
1 27691U 03008A   21309.64809925  .00000061  00000-0  00000-0 0  9991
2 27691   7.6064  55.9826 0001113  43.2210  49.4650  1.00265479 16068
USA 169 (MILSTAR-2 4)   
1 27711U 03012A   21309.85164214 -.00000188  00000-0  00000-0 0  9998
2 27711   9.7939  41.6414 0002608 183.7798 278.5854  1.00273743 16065
GALAXY 12 (G-12)        
1 27715U 03013B   21310.13788404  .00000066  00000-0  00000+0 0  9992
2 27715   2.7148  87.7813 0001787 145.6062  92.8471  1.00271506 68127
ASIASAT 4               
1 27718U 03014A   21310.37132807  .00000160  00000-0  00000+0 0  9997
2 27718   0.4080  97.0483 0002278 134.1220 346.5195  1.00272860 68038
HELLAS-SAT 2            
1 27811U 03020A   21310.43446073 -.00000144  00000-0  00000+0 0  9991
2 27811   3.1334  86.9059 0004243 133.5598 246.6564  1.00271192 67457
THURAYA-2               
1 27825U 03026A   21309.89386199  .00000134  00000-0  00000+0 0  9990
2 27825   6.4649  34.0937 0004431 162.1346 214.9092  1.00272653 67451
OPTUS C1                
1 27831U 03028B   21310.41858816 -.00000143  00000-0  00000+0 0  9990
2 27831   2.6437  88.8292 0005840 131.2488 132.1996  1.00269348 67441
GALAXY 23 (G-23)        
1 27854U 03034A   21309.65447664  .00000021  00000-0  00000-0 0  9996
2 27854   0.0173 261.0624 0002935 321.5613 297.1206  1.00272697 66856
USA 170                 
1 27875U 03040A   21310.23551708 -.00000266  00000-0  00000+0 0  9998
2 27875   6.9164  61.3519 0003248 142.4941 244.3448  1.00274399 14744
GALAXY 13 (HORIZONS 1)  
1 27954U 03044A   21310.44561424  .00000054  00000-0  00000+0 0  9993
2 27954   0.0345 105.4274 0000430 243.1808  90.7150  1.00272116 66270
YAMAL 202               
1 28089U 03053A   21310.60053674 -.00000073  00000-0  00000+0 0  9996
2 28089   2.0761  90.2871 0004461 100.2929 235.1671  1.00271374 65797
UFO 11 (USA 174)        
1 28117U 03057A   21310.05856074 -.00000086  00000-0  00000+0 0  9990
2 28117   6.6816  37.8843 0000577 126.0996 337.0516  1.00272396 65537
USA 176 (DSP 22)        
1 28158U 04004A   21309.74962487 -.00000213  00000-0  00000-0 0  9991
2 28158   9.8037  36.4804 0000515 231.3265 134.5536  1.00275213 16040
ABS-4 (MOBISAT-1)       
1 28184U 04007A   21309.96904410  .00000048  00000-0  00000+0 0  9993
2 28184   1.7611  91.5219 0005447 136.2438 227.5016  1.00272273 64697
EUTELSAT 7A             
1 28187U 04008A   21309.71386829  .00000113  00000-0  00000-0 0  9992
2 28187   1.5489  89.9687 0004009 130.7898 302.2218  1.00269657 64465
AMC-11 (GE-11)          
1 28252U 04017A   21309.64645434  .00000077  00000-0  00000-0 0  9996
2 28252   0.0262  15.0181 0002680 220.8024 271.0185  1.00271874 63992
INTELSAT 10-02          
1 28358U 04022A   21310.07063102 -.00000004  00000-0  00000+0 0  9994
2 28358   0.0592  92.7637 0000846 113.7858 223.3996  1.00272042 63730
ANIK F2                 
1 28378U 04027A   21310.45920109 -.00000044  00000-0  00000+0 0  9996
2 28378   0.0582  84.7523 0000481   1.5394  13.8828  1.00273949 63474
AMC-15                  
1 28446U 04041A   21310.46386288 -.00000083  00000-0  00000+0 0  9996
2 28446   0.0438  66.4401 0002938 167.7491 233.6815  1.00270490 62468
NSS-10 (AMC-12)         
1 28526U 05003A   21309.87772662 -.00000242  00000-0  00000-0 0  9990
2 28526   2.2321  89.6110 0002760 126.4573 107.8115  1.00270398 36263
XTAR-EUR                
1 28542U 05005A   21309.79373610  .00000159  00000-0  00000+0 0  9996
2 28542   0.0039 112.3361 0002405 107.9421 139.7420  1.00271617 61296
XM-3 (RHYTHM)           
1 28626U 05008A   21309.79637675 -.00000198  00000-0  00000-0 0  9991
2 28626   0.0128 233.3628 0000252  74.0654 299.4250  1.00271088 25734
INMARSAT 4-F1           
1 28628U 05009A   21309.84196715 -.00000254  00000-0  00000-0 0  9998
2 28628   3.4566  32.6067 0002683 191.3333 267.9782  1.00271207 60780
DIRECTV 8               
1 28659U 05019A   21310.45240671  .00000007  00000-0  00000+0 0  9997
2 28659   0.0428  91.9978 0002796 125.0617 232.6715  1.00271331 60308
GALAXY 28 (G-28)        
1 28702U 05022A   21310.43873050 -.00000180  00000-0  00000+0 0  9994
2 28702   0.0178 306.6286 0001161 223.5945 304.6175  1.00272961 59948
EXPRESS-AM3             
1 28707U 05023A   21309.60266502  .00000143  00000-0  00000+0 0  9993
2 28707   3.0229  85.8007 0001456 144.5073  54.6962  1.00272113 59946
THAICOM 4               
1 28786U 05028A   21309.83717015 -.00000355  00000-0  00000-0 0  9997
2 28786   0.0174 297.1864 0002689 278.0606 250.9695  1.00271297 35379
GALAXY 14 (G-14)        
1 28790U 05030A   21309.90535551  .00000163  00000-0  00000-0 0  9992
2 28790   0.6992  94.1384 0002392 129.1695 180.9173  1.00274190 59414
ANIK F1R                
1 28868U 05036A   21310.46146707 -.00000068  00000-0  00000+0 0  9992
2 28868   0.0245  21.4631 0000749 207.3100 235.9678  1.00271207 59278
GALAXY 15 (G-15)        
1 28884U 05041A   21309.64530517  .00000087  00000-0  00000-0 0  9991
2 28884   0.0075  13.0852 0001817 212.5533 278.7965  1.00269988 58720
SYRACUSE 3A             
1 28885U 05041B   21310.07028646  .00000136  00000-0  00000+0 0  9990
2 28885   0.5621  95.8427 0002944 131.9664 250.0242  1.00272900 58842
INMARSAT 4-F2           
1 28899U 05044A   21309.82609344  .00000017  00000-0  00000-0 0  9998
2 28899   3.3377  35.1771 0002674 194.6370 176.7699  1.00271124 58639
SPACEWAY 2              
1 28903U 05046B   21310.46162552  .00000110  00000-0  00000+0 0  9996
2 28903   1.3842  90.2167 0000306 330.8670  12.1267  1.00272017 58612
METEOSAT-9 (MSG-2)      
1 28912U 05049B   21309.59874021  .00000026  00000-0  00000-0 0  9999
2 28912   5.5182  67.6342 0000528 124.8258  71.6859  1.00267841 58141
EUTELSAT 174A           
1 28924U 05052A   21310.39459009  .00000016  00000-0  00000+0 0  9999
2 28924   0.0579  58.3656 0006523 166.2780 137.2562  1.00271722 58109
ECHOSTAR 10             
1 28935U 06003A   21309.64784407 -.00000047  00000-0  00000-0 0  9993
2 28935   0.0492  78.4617 0001679 165.1567 284.5195  1.00271910 57581
SPAINSAT                
1 28945U 06007A   21308.95984008 -.00000207  00000-0  00000+0 0  9997
2 28945   0.0170 202.5263 0005601  16.3185 141.1542  1.00270435 57332
EUTELSAT HOTBIRD 13E    
1 28946U 06007B   21309.81597611  .00000095  00000-0  00000+0 0  9998
2 28946   0.0678 127.2346 0006563  90.6614 134.1301  1.00271831 57416
JCSAT-5A                
1 29045U 06010A   21309.98326069 -.00000320  00000-0  00000+0 0  9990
2 29045   0.0267 138.5042 0002089  89.5731 303.4076  1.00271407 57054
ASTRA 1KR               
1 29055U 06012A   21310.38243664  .00000126  00000-0  00000+0 0  9991
2 29055   0.0202 269.8085 0004976 311.9231 340.9980  1.00268637 56862
EWS-G1 (GOES 13)        
1 29155U 06018A   21310.47161687  .00000044  00000-0  00000+0 0  9991
2 29155   0.2202 106.4696 0007013 117.1634  53.5481  1.00269808 56625
EUTELSAT 113 WEST A     
1 29162U 06020A   21309.86255066 -.00000030  00000-0  00000-0 0  9995
2 29162   0.0233 100.2405 0003029 123.0900  19.5124  1.00272028 56589
GALAXY 16 (G-16)        
1 29236U 06023A   21309.61199962 -.00000119  00000-0  00000-0 0  9993
2 29236   0.0127 271.8725 0002505 304.4873 310.0455  1.00271283 56088
EUTELSAT HOTBIRD 13B    
1 29270U 06032A   21310.38243664  .00000093  00000-0  00000+0 0  9995
2 29270   0.0862  39.1952 0003179 215.8925 301.4237  1.00270251 55973
JCSAT-3A                
1 29272U 06033A   21310.41309341 -.00000339  00000-0  00000+0 0  9991
2 29272   0.0125 229.1601 0001961 350.0740 103.3670  1.00269930 55874
SYRACUSE 3B             
1 29273U 06033B   21310.07063102 -.00000037  00000-0  00000+0 0  9991
2 29273   0.0139 284.0547 0003887 290.6644 211.0212  1.00269551 55867
